{
  "type": "FeatureCollection",
  "features": [
    {
      "type": "Feature",
      "properties": {
        "norad_id": 30004,
        "name": "FENGYUN 1C DEB",
        "group": "fengyun-1c-debris",
        "lat": 53.997902222858606,
        "lon": 165.43702638639778,
        "alt_km": 835.2343583117026,
        "timestamp": "2025-12-22T20:43:46.121750+00:00",
        "meta_object_name": "FENGYUN 1C DEB",
        "meta_object_id": "1999-025MD",
        "meta_epoch": "2025-12-22T12:19:23.697408",
        "meta_mean_motion": 14.1708646,
        "meta_eccentricity": 0.00384701,
        "meta_inclination": 99.2237,
        "meta_ra_of_asc_node": 177.9965,
        "meta_arg_of_pericenter": 315.1479,
        "meta_mean_anomaly": 113.661,
        "meta_ephemeris_type": 0,
        "meta_classification_type": "U",
        "meta_norad_cat_id": 30004,
        "meta_element_set_no": 999,
        "meta_rev_at_epoch": 97445,
        "meta_bstar": 0.00064796252,
        "meta_mean_motion_dot": 1.266e-05,
        "meta_mean_motion_ddot": 0,
        "tle_line1": "1 30004U 99025MD  25356.51346872  .00001266  00000+0  64796-3 0  9998",
        "tle_line2": "2 30004  99.2237 177.9965 0038470 315.1479 113.6610 14.17086460974451"
      },
      "geometry": {
        "type": "Point",
        "coordinates": [
          165.43702638639778,
          53.997902222858606
        ]
      }
    },
    {
      "type": "Feature",
      "properties": {
        "norad_id": 30005,
        "name": "FENGYUN 1C DEB",
        "group": "fengyun-1c-debris",
        "lat": 44.51033603505867,
        "lon": -51.06890907655628,
        "alt_km": 820.0669936454733,
        "timestamp": "2025-12-22T20:43:46.121760+00:00",
        "meta_object_name": "FENGYUN 1C DEB",
        "meta_object_id": "1999-025ME",
        "meta_epoch": "2025-12-18T20:37:37.606656",
        "meta_mean_motion": 13.52232242,
        "meta_eccentricity": 0.03470849,
        "meta_inclination": 99.3023,
        "meta_ra_of_asc_node": 314.4408,
        "meta_arg_of_pericenter": 77.8968,
        "meta_mean_anomaly": 286.0828,
        "meta_ephemeris_type": 0,
        "meta_classification_type": "U",
        "meta_norad_cat_id": 30005,
        "meta_element_set_no": 999,
        "meta_rev_at_epoch": 93029,
        "meta_bstar": 0.0012018224,
        "meta_mean_motion_dot": 1.119e-05,
        "meta_mean_motion_ddot": 0,
        "tle_line1": "1 30005U 99025ME  25352.85946304  .00001119  00000+0  12018-2 0  9994",
        "tle_line2": "2 30005  99.3023 314.4408 0347084  77.8968 286.0828 13.52232242930294"
      },
      "geometry": {
        "type": "Point",
        "coordinates": [
          -51.06890907655628,
          44.51033603505867
        ]
      }
    },
    {
      "type": "Feature",
      "properties": {
        "norad_id": 30007,
        "name": "FENGYUN 1C DEB",
        "group": "fengyun-1c-debris",
        "lat": 56.17939233654078,
        "lon": -115.28618252313221,
        "alt_km": 785.7974689003695,
        "timestamp": "2025-12-22T20:43:46.121770+00:00",
        "meta_object_name": "FENGYUN 1C DEB",
        "meta_object_id": "1999-025MG",
        "meta_epoch": "2025-12-21T17:49:39.997920",
        "meta_mean_motion": 14.25484145,
        "meta_eccentricity": 0.0065423,
        "meta_inclination": 99.1788,
        "meta_ra_of_asc_node": 257.5069,
        "meta_arg_of_pericenter": 349.6295,
        "meta_mean_anomaly": 78.0325,
        "meta_ephemeris_type": 0,
        "meta_classification_type": "U",
        "meta_norad_cat_id": 30007,
        "meta_element_set_no": 999,
        "meta_rev_at_epoch": 97484,
        "meta_bstar": 0.0014044102,
        "meta_mean_motion_dot": 3.346e-05,
        "meta_mean_motion_ddot": 0,
        "tle_line1": "1 30007U 99025MG  25355.74282405  .00003346  00000+0  14044-2 0  9997",
        "tle_line2": "2 30007  99.1788 257.5069 0065423 349.6295  78.0325 14.25484145974841"
      },
      "geometry": {
        "type": "Point",
        "coordinates": [
          -115.28618252313221,
          56.17939233654078
        ]
      }
    },
    {
      "type": "Feature",
      "properties": {
        "norad_id": 30008,
        "name": "FENGYUN 1C DEB",
        "group": "fengyun-1c-debris",
        "lat": 3.0901517678996715,
        "lon": -45.8496840230486,
        "alt_km": 700.4121536912271,
        "timestamp": "2025-12-22T20:43:46.121780+00:00",
        "meta_object_name": "FENGYUN 1C DEB",
        "meta_object_id": "1999-025MH",
        "meta_epoch": "2025-12-22T11:25:53.361984",
        "meta_mean_motion": 14.6647827,
        "meta_eccentricity": 0.00393754,
        "meta_inclination": 99.3702,
        "meta_ra_of_asc_node": 314.2192,
        "meta_arg_of_pericenter": 161.5427,
        "meta_mean_anomaly": 317.7624,
        "meta_ephemeris_type": 0,
        "meta_classification_type": "U",
        "meta_norad_cat_id": 30008,
        "meta_element_set_no": 999,
        "meta_rev_at_epoch": 99202,
        "meta_bstar": 0.0019110738,
        "meta_mean_motion_dot": 0.0001066,
        "meta_mean_motion_ddot": 0,
        "tle_line1": "1 30008U 99025MH  25356.47631206  .00010660  00000+0  19111-2 0  9993",
        "tle_line2": "2 30008  99.3702 314.2192 0039375 161.5427 317.7624 14.66478270992025"
      },
      "geometry": {
        "type": "Point",
        "coordinates": [
          -45.8496840230486,
          3.0901517678996715
        ]
      }
    },
    {
      "type": "Feature",
      "properties": {
        "norad_id": 30009,
        "name": "FENGYUN 1C DEB",
        "group": "fengyun-1c-debris",
        "lat": -16.34552490933991,
        "lon": 54.38750564356352,
        "alt_km": 844.43259244827,
        "timestamp": "2025-12-22T20:43:46.121789+00:00",
        "meta_object_name": "FENGYUN 1C DEB",
        "meta_object_id": "1999-025MJ",
        "meta_epoch": "2025-12-21T17:27:33.027840",
        "meta_mean_motion": 14.04879425,
        "meta_eccentricity": 0.00642456,
        "meta_inclination": 99.0143,
        "meta_ra_of_asc_node": 50.5906,
        "meta_arg_of_pericenter": 309.5468,
        "meta_mean_anomaly": 50.0033,
        "meta_ephemeris_type": 0,
        "meta_classification_type": "U",
        "meta_norad_cat_id": 30009,
        "meta_element_set_no": 999,
        "meta_rev_at_epoch": 96609,
        "meta_bstar": 0.00081812311,
        "meta_mean_motion_dot": 1.294e-05,
        "meta_mean_motion_ddot": 0,
        "tle_line1": "1 30009U 99025MJ  25355.72746560  .00001294  00000+0  81812-3 0  9992",
        "tle_line2": "2 30009  99.0143  50.5906 0064245 309.5468  50.0033 14.04879425966096"
      },
      "geometry": {
        "type": "Point",
        "coordinates": [
          54.38750564356352,
          -16.34552490933991
        ]
      }
    },
    {
      "type": "Feature",
      "properties": {
        "norad_id": 30010,
        "name": "FENGYUN 1C DEB",
        "group": "fengyun-1c-debris",
        "lat": -7.095523306070189,
        "lon": 8.219563156108073,
        "alt_km": 760.1238508431716,
        "timestamp": "2025-12-22T20:43:46.121799+00:00",
        "meta_object_name": "FENGYUN 1C DEB",
        "meta_object_id": "1999-025MK",
        "meta_epoch": "2025-12-22T13:12:34.165152",
        "meta_mean_motion": 14.24993596,
        "meta_eccentricity": 0.00731084,
        "meta_inclination": 99.0695,
        "meta_ra_of_asc_node": 189.0352,
        "meta_arg_of_pericenter": 181.081,
        "meta_mean_anomaly": 199.3961,
        "meta_ephemeris_type": 0,
        "meta_classification_type": "U",
        "meta_norad_cat_id": 30010,
        "meta_element_set_no": 999,
        "meta_rev_at_epoch": 98400,
        "meta_bstar": 0.00011520395,
        "meta_mean_motion_dot": 2.3e-06,
        "meta_mean_motion_ddot": 0,
        "tle_line1": "1 30010U 99025MK  25356.55039543  .00000230  00000+0  11520-3 0  9990",
        "tle_line2": "2 30010  99.0695 189.0352 0073108 181.0810 199.3961 14.24993596984001"
      },
      "geometry": {
        "type": "Point",
        "coordinates": [
          8.219563156108073,
          -7.095523306070189
        ]
      }
    },
    {
      "type": "Feature",
      "properties": {
        "norad_id": 30012,
        "name": "FENGYUN 1C DEB",
        "group": "fengyun-1c-debris",
        "lat": 25.9065410591638,
        "lon": -125.15799532421599,
        "alt_km": 859.4711429210138,
        "timestamp": "2025-12-22T20:43:46.121809+00:00",
        "meta_object_name": "FENGYUN 1C DEB",
        "meta_object_id": "1999-025MM",
        "meta_epoch": "2025-12-22T02:56:06.593856",
        "meta_mean_motion": 13.85771876,
        "meta_eccentricity": 0.01372161,
        "meta_inclination": 99.4629,
        "meta_ra_of_asc_node": 49.4469,
        "meta_arg_of_pericenter": 120.8388,
        "meta_mean_anomaly": 295.0236,
        "meta_ephemeris_type": 0,
        "meta_classification_type": "U",
        "meta_norad_cat_id": 30012,
        "meta_element_set_no": 999,
        "meta_rev_at_epoch": 95678,
        "meta_bstar": 0.00027366978,
        "meta_mean_motion_dot": 2.93e-06,
        "meta_mean_motion_ddot": 0,
        "tle_line1": "1 30012U 99025MM  25356.12229854  .00000293  00000+0  27367-3 0  9996",
        "tle_line2": "2 30012  99.4629  49.4469 0137216 120.8388 295.0236 13.85771876956788"
      },
      "geometry": {
        "type": "Point",
        "coordinates": [
          -125.15799532421599,
          25.9065410591638
        ]
      }
    }
  ]
}